#dP2023  7 24 18  0  0.00000000      96 __u+U ITR00 EXT  IAC
## 2272 151200.00000000   900.00000000 60149 0.7500000000000
+  119   C06C07C08C09C10C11C12C13C14C16C19C20C21C22C23C24C25
+        C26C27C28C29C30C32C33C34C35C36C37C38C39C40C41C42C43
+        C44C45C46E02E03E04E05E07E08E09E10E11E12E13E14E15E18
+        E19E21E24E25E26E27E30E31E33E34E36G01G02G03G04G05G06
+        G07G08G09G10G11G12G13G14G15G16G17G18G19G20G21G22G23
+        G24G25G26G27G28G29G30G31G32J02J03J04R01R02R03R04R05
+        R07R08R09R11R12R13R14R15R16R17R18R19R20R21R22R24R25
++        10 11  8 10  9  8  8 10  9 10  7  8  9  8  9  9  8
++         8  5  7  8  7  8  9  8  9  9 10 11  9 11 11  9  9
++         9  7  8  8  6  8  7  8  7  6  7  7  7  7  9  6  7
++         7  6  7  8  7  7  6  8  9  7  7  7  7  7  6  7  7
++         9  7  9  7  7  7  7  7  7  7  6  7  8  7  7  7  6
++         6  8  7  6  7  7  7  7  7  8 10 10  8  8  8  9  9
++         9  9  9  8  8  7  7  7  8  8  8  8  8  8  7  7  8
%c M  cc GPS ccc cccc cccc cccc cccc ccccc ccccc ccccc ccccc
%c cc cc ccc ccc cccc cccc cccc cccc ccccc ccccc ccccc ccccc
%f  0.0000000  0.000000000  0.00000000000  0.000000000000000
%f  0.0000000  0.000000000  0.00000000000  0.000000000000000
%i    0    0    0    0      0      0      0      0         0
%i    0    0    0    0      0      0      0      0         0
/* IAC                                ULTRA-RAPID PREDICTION
/* S/V CLOCKS ARE ALIGNED TO GNSS TIME                      
/* G:C1WC2W R:C1PC2P E:C1XC5X C:C2IC6I J:C1CC2S             
/* PCV:IGS20_2247 OL/AL:FES2004  NONE     YN ORB:CoN CLK:CoN
*  2023 07 25 17 15  0.00000000
PC06 -19353.272697  29642.927348  22725.601088    695.090932
PC07  -5739.488985  40022.198797  12392.654089   -377.736319
PC08  -2043.897412  21757.979879 -36046.335014    415.268807
PC09  -9654.611140  28570.495769  29659.255269    373.070769
PC10  -1033.284171  41837.092204   7497.512647   -125.270438
PC11  22497.988037  -6739.872498 -14988.508914    744.881425
PC12  11696.476841  10142.713726 -23184.241693    816.794154
PC13   4750.924224  25135.672532 -33305.502910    322.190988
PC14  16264.088148   1434.123094  22649.182985    116.809706
PC16 -20374.349413  29446.918933  22259.500182     -8.354536
PC19 -13392.617516   9600.718153 -22505.869784   -946.425895
PC20 -16473.526626 -10257.995986 -20034.288056    410.080409
PC21   9789.186199  25632.608175   5180.197712   -939.633709
PC22  -2480.786348  25015.355632 -12156.290908   -380.412823
PC23   7643.387364 -14662.477547 -22466.928753   -929.597938
PC24  26014.650062   9703.232281   2675.148552    212.150903
PC25  23237.466954  -4706.903697 -14707.620098    175.482562
PC26  14334.582745  16668.483520  17157.830097   -153.845986
PC27  -4477.266088 -16674.230535  21902.350241    174.815579
PC28  11709.844126 -22316.682512  11976.377303    130.457352
PC29 -22160.632292  15495.443258   6896.463449    152.054932
PC30 -18706.080145  -1628.903633  20628.446508     -2.646714
PC32  -9920.413571 -25576.807785  -5057.892347   -536.407007
PC33  13427.681414  -9526.397275  22527.674387   -921.374326
PC34  19475.825476    345.246755 -20003.495712    222.652649
PC35 -11136.898503  22768.175197 -11656.252818    581.299458
PC36 -23799.925656   3620.821952  14148.971049   -310.501934
PC37 -13033.648912 -17145.466075 -17738.812491   -797.599734
PC38 -11151.146628  19981.721884 -35388.368640     93.892194
PC39 -24747.688309  29965.379579  16085.429314     -3.999433
PC40 -10930.203647  37489.074989  16243.026966    -30.639330
PC41   2932.003135 -24647.542199  12789.530303   -897.316290
PC42  16435.136500  11766.894945  19290.866232   -599.833318
PC43  22386.521535 -14802.306237  -7690.278739     32.310828
PC44   5063.513946  16704.750624 -21783.794403    179.715910
PC45  -7074.340487  14747.618176  22618.263087     -6.154144
PC46 -26440.930350  -8886.132368  -1339.588856    -71.581690
PE02  23166.285877  13289.715042 -12747.628541     51.828970
PE03  16659.484158   3658.190372  24188.991644    -39.507849
PE04 -17770.606427  17275.021624 -16181.718069   -174.666110
PE05   5794.088061  22672.637560  18133.193040      2.908269
PE07   8636.018254 -28280.753435  -1169.513728    -62.560896
PE08  17743.529329 -16948.525950  16545.845044   -120.006797
PE09  -8705.378334  28282.676238   1029.299217    -97.181808
PE10 -20387.740019  14564.743157 -15782.233632   -551.176147
PE11  -9969.224962  16741.848474 -22297.387930   2572.975332
PE12 -26727.499379  10316.840268  -7429.826417   -632.191354
PE13  10776.480103 -16626.085126  21986.940786    -19.351966
PE14 -19281.423049  11662.405251  15563.390291    292.445635
PE15  26900.924200 -10130.331070   7062.169169    -39.907199
PE18  19559.769575   1632.434258 -22029.144342    337.328676
PE19 -15562.641535  -6534.724894 -24308.534512  -1996.760121
PE21 -16647.874289 -24002.618432  -4774.819886   -542.806144
PE24   -631.855414  21100.426668  20734.706180   -229.300593
PE25  16406.762654  24099.005998   5131.304712   -608.850053
PE26 -12242.003391 -13165.876581  23512.486841    173.488107
PE27    -90.546350 -21420.016716 -20423.727399   -108.106903
PE30  16706.826605  -5774.805497 -23744.667170   -364.634968
PE31 -16346.726334   6253.203711  23883.479483     -1.181775
PE33 -26783.270793  -2619.764060  12334.340141     -2.239432
PE34  27061.929519   2163.280116 -11792.844801    -57.998941
PE36  11435.367221  13307.809269 -23845.020957    -91.251225
PG01   5034.792610  14053.267645 -22334.414889    171.324038
PG02  -2173.425513  15475.725137 -20949.152787   -572.487188
PG03  11504.078032  22565.368710  -8330.815349   -217.231272
PG04   2182.637461  21904.967853  14786.322857    106.094130
PG05   1821.224166 -17822.867665  19390.642373   -136.266999
PG06  26013.654459  -5372.261331   1686.341257    574.302957
PG07  20594.477804   7818.519314  15645.037674    114.761107
PG08  -5245.013178  25448.816263  -4439.431417   -133.988546
PG09   9971.783145  14301.707822  19945.944037   -103.357077
PG10 -19630.350983  -5744.342764 -16938.941466    -46.607986
PG11  18126.728652 -12537.039024  14796.774485   -291.476818
PG12  -7037.458671 -23147.474550 -11321.398588   -405.014099
PG13  13354.804717 -22757.431591   1550.992088    551.757673
PG14  20335.053129   8733.114379 -14783.171014    133.551155
PG15   1378.032657 -25914.591924  -5452.652507     61.385060
PG16  -7549.314083  14279.317931  20689.273058   -476.533361
PG17  16413.319635  -3166.234626 -20234.968725    721.645868
PG18 -22287.744374  -5763.273004  13393.282493   -358.764938
PG19  17832.677970 -10077.718189 -16937.693678    348.720684
PG20  10722.714538 -11186.484959  21600.447372    420.755754
PG21  -4578.261101  15752.319384 -20150.039957    151.706520
PG22 -17224.884768  14085.623566 -13931.117545    517.864099
PG23 -20315.145474 -15719.454617  -7082.084845     47.267128
PG24   -819.143136 -16163.701449 -21386.269786   -269.263176
PG25 -17295.414860 -20348.580554   -147.239675    458.283876
PG26 -16028.748569   5208.333735  20476.823695    235.317152
PG27 -12784.790763  22003.986490   6564.716497     -9.989722
PG28 -26061.220543   5099.689400   -502.397447     80.909116
PG29  -7616.795306 -15750.528478  19902.131307   -606.401238
PG30  25691.110446   1183.442071   7288.518401   -501.617114
PG31 -22453.363001  10497.790385   9924.281764   -220.699231
PG32 -16711.170150   6707.762713 -19276.599964   -528.179696
PJ02 -26527.337598  21654.579485  29712.360421     -1.758336
PJ03 -35144.226955  21682.645971  -4185.651400     -0.349225
PJ04 -18050.347035  30161.736755 -18244.702456     97.548916
PR01  10632.946202  -3847.714758  22862.962034     62.137821
PR02   5530.216559 -20775.321265  13822.458546    -22.566548
PR03  -2803.681228 -25196.380173  -3042.805932     82.130274
PR04  -9069.634124 -15687.409935 -17932.243124    196.184808
PR05 -10621.694036   2258.542440 -23070.461501    116.325296
PR07   3220.667879  24962.966253   4019.038095     60.976932
PR08   9355.084080  15375.076401  18118.561801    -71.795865
PR09  -8065.180133   8606.304840  22632.828318    133.136712
PR11  21273.790303  13122.041731   5154.172454   -113.848702
PR12  21334.553970   3387.415255 -13525.580281     29.481338
PR13  10040.039253  -7082.831833 -22361.121630    -37.472987
PR14  -9451.752971 -14690.508117 -18560.378390     25.016072
PR15 -21682.246318 -12879.905275  -3774.258531     87.582259
PR16 -21429.887855  -3464.709053  13379.740556     17.054429
PR17   3055.794563 -13553.410006  21383.106351      3.001096
PR18 -12298.429403  -3947.571402  21996.505678     93.410766
PR19 -21362.248177   6153.097824  12512.231016   -241.094510
PR20 -18783.037054  15214.484016  -8093.241484    -97.178340
PR21  -2087.411435  13001.953576 -21858.200898    -25.370618
PR22  13203.182667   3977.176248 -21439.288702    101.524929
PR24  17775.182254 -16127.068353   8617.583070    -17.931807
PR25  -3654.583618  13708.201880 -21204.088703     45.724139
EOF
